0 COSMOS 2251 DEB
1 33991U 93036GA  13281.75291267  .00023026  00000-0  36735-2 0  4332
2 33991 074.0158 037.0340 0046593 186.8288 294.5033 14.71110149247139
0 COSMOS 2251 DEB
1 33991U 93036GA  13282.15053228  .00038236  00000-0  60780-2 0  4347
2 33991 074.0157 036.2607 0046429 185.9734 240.2903 14.71151979247195
0 COSMOS 2251 DEB
1 33991U 93036GA  13283.10067105  .00033104  00000-0  52604-2 0  4358
2 33991 074.0155 034.4126 0046267 184.0690 232.2827 14.71210435247335
0 COSMOS 2251 DEB
1 33991U 93036GA  13284.12119766  .00031575  00000-0  50133-2 0  4368
2 33991 074.0154 032.4274 0046108 182.0443 237.2397 14.71261801247480
0 COSMOS 2251 DEB
1 33991U 93036GA  13286.09372587  .00026446  00000-0  41945-2 0  4382
2 33991 074.0157 028.5895 0045769 177.8696 245.0057 14.71360280247775
0 COSMOS 2251 DEB
1 33991U 93036GA  13287.11433618  .00024291  00000-0  38507-2 0  4396
2 33991 074.0159 026.6036 0045572 175.6766 251.1152 14.71406149247925
0 COSMOS 2251 DEB
1 33991U 93036GA  13288.40738324  .00040158  00000-0  63372-2 0  4401
2 33991 074.0165 024.0881 0045188 173.0753 260.4200 14.71493137248115
0 COSMOS 2251 DEB
1 33991U 93036GA  13289.43738433  .00034081  00000-0  53763-2 0  4418
2 33991 074.0167 022.0834 0044980 170.8983 316.7743 14.71558323248264
0 COSMOS 2251 DEB
1 33991U 93036GA  13290.45678624  .00035568  00000-0  56035-2 0  4424
2 33991 074.0167 020.0997 0044792 168.6245 317.3085 14.71610481248416
0 COSMOS 2251 DEB
1 33991U 93036GA  13291.46750446  .00030643  00000-0  48259-2 0  4438
2 33991 074.0166 018.1327 0044555 166.5468 271.8805 14.71670444248566
0 COSMOS 2251 DEB
1 33991U 93036GA  13292.48656943  .00028922  00000-0  45511-2 0  4444
2 33991 074.0163 016.1491 0044333 164.2949 271.0380 14.71726853248719
0 COSMOS 2251 DEB
1 33991U 93036GA  13293.71551068  .00029087  00000-0  45711-2 0  4459
2 33991 074.0159 013.7564 0044141 161.5377 302.4546 14.71787735248898
0 COSMOS 2251 DEB
1 33991U 93036GA  13294.73532880  .00034274  00000-0  53757-2 0  4467
2 33991 074.0156 011.7707 0043967 159.2272 306.0880 14.71837453249047
0 COSMOS 2251 DEB
1 33991U 93036GA  13295.69041157  .00031821  00000-0  49887-2 0  4470
2 33991 074.0156 009.9112 0043657 157.2959 326.6466 14.71885132249182
